HELIOS 1B               
1 25977U 99064A   20219.77485895  .00000011  00000-0  84769-5 0  9996
2 25977  98.2872  16.4284 0001835 135.7411 224.3948 14.82488113382579
TERRA                   
1 25994U 99068A   20220.19190536  .00000106  00000-0  33559-4 0  9997
2 25994  98.2106 293.7663 0001324 105.9006 254.2348 14.57112935 97703
SL-16 R/B               
1 26070U 00006B   20219.97818834  .00000117  00000-0  84202-4 0  9992
2 26070  71.0008  67.0839 0015066  42.1582 318.0697 14.15465409 59744
MTI                     
1 26102U 00014A   20220.23488166  .00004890  00000-0  71397-4 0  9992
2 26102  97.4965 104.9410 0008857  50.1244 310.0691 15.56145075132416
TITAN 4B R/B            
1 26474U 00047B   20219.46381492  .00000074  00000-0  17330-4 0  9994
2 26474  67.9943 298.0335 0053131 146.8327 213.6165 14.95974473 86727
ENVISAT                 
1 27386U 02009A   20220.00923660  .00000004  00000-0  14598-4 0  9994
2 27386  98.1364 224.4002 0001418  89.1076 327.8910 14.37988117965883
IDEFIX & ARIANE 42P R/B 
1 27422U 02021B   20219.43912105 -.00000014  00000-0  10846-4 0  9990
2 27422  98.3544 178.4472 0013486  83.4341 276.8376 14.29291772952302
AQUA                    
1 27424U 02022A   20219.80511609  .00000057  00000-0  22657-4 0  9997
2 27424  98.2105 159.7174 0001526 132.4986 257.5473 14.57106367971254
CZ-4B R/B               
1 27432U 02024C   20219.51362515 -.00000040  00000-0  32496-5 0  9992
2 27432  99.0884 222.5571 0051098  36.1083  73.1941 14.14095506940728
MIDORI II (ADEOS-II)    
1 27597U 02056A   20219.44446063  .00000019  00000-0  25375-4 0  9994
2 27597  98.5221 165.7819 0001089 130.7788 229.3488 14.27454851918946
H-2A R/B                
1 27601U 02056E   20220.11621653  .00000035  00000-0  27031-4 0  9995
2 27601  98.2228 253.2746 0073227 126.2247 298.4380 14.31961889921942
CZ-4B R/B               
1 28059U 03049C   20219.33158909  .00000009  00000-0  13973-4 0  9998
2 28059  98.4833 136.4227 0049897 347.5965  12.3998 14.52606103890076
CZ-2C R/B               
1 28222U 04012C   20219.73041840  .00000378  00000-0  26574-4 0  9990
2 28222  97.6807 182.4190 0046031 216.5576 194.1495 15.10431712893622
SL-16 R/B               
1 28353U 04021B   20220.20389465 -.00000238  00000-0 -99938-4 0  9998
2 28353  70.9991 192.8869 0007467 261.7443  98.2833 14.14232084834324
CZ-4B R/B               
1 28415U 04035C   20220.10218275 -.00000235  00000-0 -10963-4 0  9999
2 28415  97.6098 261.1148 0051597 178.0016 182.1427 15.06886560871268
CZ-2C R/B               
1 28480U 04046B   20220.08512927 -.00000035  00000-0  12317-5 0  9994
2 28480  98.0752 251.1000 0143146  75.3489 341.5998 14.25726502817659
ARIANE 5 R/B            
1 28499U 04049H   20219.75786128  .00000041  00000-0  12294-4 0  9994
2 28499  98.0580 321.6996 0093482 110.4459  41.1199 14.80039084843579
CZ-2D R/B               
1 28738U 05024B   20219.07999570  .00000362  00000-0  24656-4 0  9997
2 28738  97.3807 240.0038 0012431  20.3534 339.8190 15.12072662828923
SUZAKU (ASTRO-EII)      
1 28773U 05025A   20218.61430212  .00000910  00000-0  39809-4 0  9994
2 28773  31.3829  56.9909 0004601 338.9621  21.0837 15.17620089831413
ALOS (DAICHI)           
1 28931U 06002A   20219.89989650  .00000089  00000-0  26061-4 0  9995
2 28931  97.8478 203.1666 0001065  25.0396 335.0844 14.62727951775076
H-2A R/B                
1 28932U 06002B   20220.15517694  .00000475  00000-0  49534-4 0  9991
2 28932  98.3240 213.0491 0089219 154.9007 336.3126 14.92255374788815
AKARI (ASTRO-F)         
1 28939U 06005A   20219.79370491  .00002179  00000-0  59505-4 0  9993
2 28939  98.2354 199.7004 0093654 147.2890 213.4199 15.34461836788612
RESURS-DK 1             
1 29228U 06021A   20219.54392451  .00000045  00000-0  10728-4 0  9990
2 29228  69.9354  60.4837 0004448 344.7789  15.3237 15.02556313780277
GENESIS 1               
1 29252U 06029A   20219.20991139  .00000266  00000-0  22778-4 0  9999
2 29252  64.5240 138.8416 0002440 128.4863 231.6480 15.18184551775659
CZ-4B R/B               
1 29507U 06046C   20220.03388895 -.00000629  00000-0 -43699-4 0  9993
2 29507  97.7521 241.8238 0045943 355.5871   4.4941 15.00640725753000
CZ-2C R/B               
1 31114U 07010B   20219.56886666 -.00000011  00000-0  13027-4 0  9993
2 31114  98.2564  69.0670 0060731 120.4974 240.2219 14.19326129690135
COSMO-SKYMED 1          
1 31598U 07023A   20219.90823124 -.00003090  00000-0 -38199-3 0  9998
2 31598  97.8847  42.3342 0001489  74.7180 285.4354 14.82129919712308
GENESIS 2               
1 31789U 07028A   20220.11490228  .00000214  00000-0  20942-4 0  9996
2 31789  64.5019 177.5661 0038958 236.0293 123.7125 15.17303570722853
COSMOS 2428             
1 31792U 07029A   20220.13608807 -.00000324  00000-0 -14991-3 0  9997
2 31792  70.9072 166.5312 0010210 343.3097  16.7686 14.12306081676027
SL-16 R/B               
1 31793U 07029B   20219.22153626  .00000152  00000-0  10419-3 0  9998
2 31793  70.9757 141.8179 0002284 257.6915 252.2703 14.14429359676723
KORONAS-FOTON           
1 33504U 09003A   20219.87419608  .00000667  00000-0  33198-4 0  9991
2 33504  82.4433 172.6561 0020738 103.4403 256.9142 15.15676301635024
H-2A R/B                
1 38341U 12025E   20220.15133231  .00000143  00000-0  24245-4 0  9993
2 38341  98.5062  18.4650 0056693  69.5944 291.1344 14.84055030444973
CUSAT 2 & FALCON 9 R/B  
1 39271U 13055G   20219.48833787  .00007618  00000-0  18171-3 0  9991
2 39271  80.9642 213.1816 0586939  19.8620 342.4410 14.48549173357976
SL-4 R/B                
1 39679U 14021B   20219.46637498 -.00000119  00000-0  12878-4 0  9995
2 39679  51.6140 235.3150 0172260 119.0124 242.8231 15.06454473346888
ALOS-2                  
1 39766U 14029A   20220.23577364 -.00000257  00000-0 -27492-4 0  9994
2 39766  97.9229 316.1067 0001515  88.8671 271.2742 14.79469069335208
CZ-2C R/B               
1 40306U 14071B   20219.82619368  .00002818  00000-0  60978-4 0  9996
2 40306  97.3275 166.7975 0014991 349.5708  10.5227 15.45246420321623
SL-27 R/B               
1 40354U 14084B   20220.19002746  .00000719  00000-0  18747-4 0  9996
2 40354  74.7377 283.1268 0036090  86.0722 274.4614 15.40291422316341
YAOGAN 29               
1 41038U 15069A   20220.06215060 -.00000005  00000-0  62348-5 0  9997
2 41038  98.0127 207.9571 0002331  87.3354 272.8127 14.80454502253760
ASTRO-H (HITOMI)        
1 41337U 16012A   20219.68345200  .00000215  00000-0  10486-4 0  9991
2 41337  31.0066  51.2772 0012509 208.1931 151.8027 14.98696813245045
SHENZHOU-11 MODULE      
1 41868U 16061G   20219.83491235  .00082914  11418-4  12786-3 0  9990
2 41868  42.7842 180.2083 0013526 167.8532 276.1151 16.03626639214144
HXMT (HUIYAN)           
1 42758U 17034A   20220.11336520  .00000104  00000-0  20215-4 0  9997
2 42758  43.0171 118.0744 0011591 341.0188 160.9473 15.08861156173520
CZ-2C R/B               
1 43521U 18054D   20220.15577776  .00000296  00000-0  18069-4 0  9999
2 43521  35.1527 227.4847 0083092 205.2886 154.3747 15.11033734116824
AEOLUS                  
1 43600U 18066A   20219.49353627  .00026545  00000-0  10406-3 0  9993
2 43600  96.7185 225.1365 0004902  84.9184 275.2649 15.86927680113309
SAOCOM 1A               
1 43641U 18076A   20220.05145064  .00000012  00000-0  80796-5 0  9999
2 43641  97.8891  45.4405 0001441  79.6227 280.5147 14.82153626 99099
CREW DRAGON DEMO-1 DEB  
1 44064U 19011B   20219.83455751  .00014072  00000-0  14011-3 0  9996
2 44064  51.6343  56.9862 0002769 239.4935 120.5787 15.65993763 80807
